[{"OBJECT_NAME":"ONEWEB-0087","OBJECT_ID":"2020-020AD","EPOCH":"2026-04-29T04:49:56.334144","MEAN_MOTION":13.11417231,"ECCENTRICITY":0.0002142,"INCLINATION":87.8942,"RA_OF_ASC_NODE":30.7744,"ARG_OF_PERICENTER":80.389,"MEAN_ANOMALY":279.748,"EPHEMERIS_TYPE":0,"CLASSIFICATION_TYPE":"U","NORAD_CAT_ID":45451,"ELEMENT_SET_NO":999,"REV_AT_EPOCH":29616,"BSTAR":0.0015566,"MEAN_MOTION_DOT":5.64e-06,"MEAN_MOTION_DDOT":0.0},{"OBJECT_NAME":"ONEWEB-0082","OBJECT_ID":"2020-020AE","EPOCH":"2026-04-29T04:45:15.003648","MEAN_MOTION":13.11417923,"ECCENTRICITY":0.0002063,"INCLINATION":87.8935,"RA_OF_ASC_NODE":30.7954,"ARG_OF_PERICENTER":79.0838,"MEAN_ANOMALY":281.0522,"EPHEMERIS_TYPE":0,"CLASSIFICATION_TYPE":"U","NORAD_CAT_ID":45452,"ELEMENT_SET_NO":999,"REV_AT_EPOCH":29625,"BSTAR":0.0016962,"MEAN_MOTION_DOT":6.14e-06,"MEAN_MOTION_DDOT":0.0},{"OBJECT_NAME":"ONEWEB-0050","OBJECT_ID":"2020-020AF","EPOCH":"2026-04-29T06:13:04.861056","MEAN_MOTION":14.90172662,"ECCENTRICITY":0.0005505,"INCLINATION":88.9281,"RA_OF_ASC_NODE":239.8526,"ARG_OF_PERICENTER":127.4444,"MEAN_ANOMALY":232.7287,"EPHEMERIS_TYPE":0,"CLASSIFICATION_TYPE":"U","NORAD_CAT_ID":45453,"ELEMENT_SET_NO":999,"REV_AT_EPOCH":33309,"BSTAR":0.00030839,"MEAN_MOTION_DOT":3.006e-05,"MEAN_MOTION_DDOT":0.0},{"OBJECT_NAME":"ONEWEB-0034","OBJECT_ID":"2020-020AG","EPOCH":"2026-04-29T05:17:39.048576","MEAN_MOTION":13.10929624,"ECCENTRICITY":0.0001849,"INCLINATION":87.8932,"RA_OF_ASC_NODE":30.7945,"ARG_OF_PERICENTER":78.324,"MEAN_ANOMALY":281.8095,"EPHEMERIS_TYPE":0,"CLASSIFICATION_TYPE":"U","NORAD_CAT_ID":45454,"ELEMENT_SET_NO":999,"REV_AT_EPOCH":29617,"BSTAR":0.00032931,"MEAN_MOTION_DOT":1.29e-06,"MEAN_MOTION_DDOT":0.0},{"OBJECT_NAME":"ONEWEB-0060","OBJECT_ID":"2020-020AH","EPOCH":"2026-04-29T04:34:15.350880","MEAN_MOTION":13.11418474,"ECCENTRICITY":0.0002859,"INCLINATION":87.8928,"RA_OF_ASC_NODE":30.8082,"ARG_OF_PERICENTER":79.418,"MEAN_ANOMALY":280.727,"EPHEMERIS_TYPE":0,"CLASSIFICATION_TYPE":"U","NORAD_CAT_ID":45455,"ELEMENT_SET_NO":999,"REV_AT_EPOCH":29612,"BSTAR":0.0009411199999999999,"MEAN_MOTION_DOT":3.46e-06,"MEAN_MOTION_DDOT":0.0},{"OBJECT_NAME":"ONEWEB-0086","OBJECT_ID":"2020-020AJ","EPOCH":"2026-04-29T05:53:35.512224","MEAN_MOTION":13.11418387,"ECCENTRICITY":0.0002426,"INCLINATION":87.8936,"RA_OF_ASC_NODE":30.7889,"ARG_OF_PERICENTER":66.72,"MEAN_ANOMALY":293.4183,"EPHEMERIS_TYPE":0,"CLASSIFICATION_TYPE":"U","NORAD_CAT_ID":45456,"ELEMENT_SET_NO":999,"REV_AT_EPOCH":29619,"BSTAR":-0.0013023000000000002,"MEAN_MOTION_DOT":-4.49e-06,"MEAN_MOTION_DDOT":0.0},{"OBJECT_NAME":"ONEWEB-0088","OBJECT_ID":"2020-020AK","EPOCH":"2026-04-29T05:21:51.414336","MEAN_MOTION":13.11413817,"ECCENTRICITY":0.0001744,"INCLINATION":87.8944,"RA_OF_ASC_NODE":30.7619,"ARG_OF_PERICENTER":92.6839,"MEAN_ANOMALY":267.4489,"EPHEMERIS_TYPE":0,"CLASSIFICATION_TYPE":"U","NORAD_CAT_ID":45457,"ELEMENT_SET_NO":999,"REV_AT_EPOCH":29612,"BSTAR":-3.0315e-05,"MEAN_MOTION_DOT":2e-08,"MEAN_MOTION_DDOT":0.0},{"OBJECT_NAME":"ONEWEB-0102","OBJECT_ID":"2020-100A","EPOCH":"2026-04-29T04:33:10.491264","MEAN_MOTION":13.12443809,"ECCENTRICITY":0.0001911,"INCLINATION":87.8985,"RA_OF_ASC_NODE":0.4161,"ARG_OF_PERICENTER":74.8211,"MEAN_ANOMALY":285.3128,"EPHEMERIS_TYPE":0,"CLASSIFICATION_TYPE":"U","NORAD_CAT_ID":47258,"ELEMENT_SET_NO":999,"REV_AT_EPOCH":25830,"BSTAR":0.0011833,"MEAN_MOTION_DOT":4.38e-06,"MEAN_MOTION_DDOT":0.0},{"OBJECT_NAME":"ONEWEB-0109","OBJECT_ID":"2020-100B","EPOCH":"2026-04-29T04:45:22.040064","MEAN_MOTION":13.12443513,"ECCENTRICITY":0.00017,"INCLINATION":87.8995,"RA_OF_ASC_NODE":0.3933,"ARG_OF_PERICENTER":77.3759,"MEAN_ANOMALY":282.756,"EPHEMERIS_TYPE":0,"CLASSIFICATION_TYPE":"U","NORAD_CAT_ID":47259,"ELEMENT_SET_NO":999,"REV_AT_EPOCH":25813,"BSTAR":0.0011987,"MEAN_MOTION_DOT":4.44e-06,"MEAN_MOTION_DDOT":0.0},{"OBJECT_NAME":"ONEWEB-0110","OBJECT_ID":"2020-100C","EPOCH":"2026-04-29T05:24:24.264576","MEAN_MOTION":13.12442752,"ECCENTRICITY":0.0001991,"INCLINATION":87.8995,"RA_OF_ASC_NODE":0.3721,"ARG_OF_PERICENTER":76.6345,"MEAN_ANOMALY":283.5005,"EPHEMERIS_TYPE":0,"CLASSIFICATION_TYPE":"U","NORAD_CAT_ID":47260,"ELEMENT_SET_NO":999,"REV_AT_EPOCH":25830,"BSTAR":-0.00083483,"MEAN_MOTION_DOT":-2.88e-06,"MEAN_MOTION_DDOT":0.0},{"OBJECT_NAME":"ONEWEB-0111","OBJECT_ID":"2020-100D","EPOCH":"2026-04-29T04:18:31.725504","MEAN_MOTION":13.12444919,"ECCENTRICITY":0.0001888,"INCLINATION":87.8992,"RA_OF_ASC_NODE":0.3999,"ARG_OF_PERICENTER":82.2018,"MEAN_ANOMALY":277.9325,"EPHEMERIS_TYPE":0,"CLASSIFICATION_TYPE":"U","NORAD_CAT_ID":47261,"ELEMENT_SET_NO":999,"REV_AT_EPOCH":25813,"BSTAR":0.00047346,"MEAN_MOTION_DOT":1.83e-06,"MEAN_MOTION_DDOT":0.0},{"OBJECT_NAME":"ONEWEB-0114","OBJECT_ID":"2020-100E","EPOCH":"2026-04-29T05:02:26.606688","MEAN_MOTION":13.12442381,"ECCENTRICITY":0.0001483,"INCLINATION":87.8997,"RA_OF_ASC_NODE":0.3905,"ARG_OF_PERICENTER":80.3455,"MEAN_ANOMALY":279.7841,"EPHEMERIS_TYPE":0,"CLASSIFICATION_TYPE":"U","NORAD_CAT_ID":47262,"ELEMENT_SET_NO":999,"REV_AT_EPOCH":25809,"BSTAR":0.00040893,"MEAN_MOTION_DOT":1.6e-06,"MEAN_MOTION_DDOT":0.0},{"OBJECT_NAME":"ONEWEB-0117","OBJECT_ID":"2020-100F","EPOCH":"2026-04-29T04:50:15.169344","MEAN_MOTION":13.12442496,"ECCENTRICITY":0.0001782,"INCLINATION":87.8994,"RA_OF_ASC_NODE":0.3848,"ARG_OF_PERICENTER":79.9184,"MEAN_ANOMALY":280.2145,"EPHEMERIS_TYPE":0,"CLASSIFICATION_TYPE":"U","NORAD_CAT_ID":47263,"ELEMENT_SET_NO":999,"REV_AT_EPOCH":25810,"BSTAR":0.0009721300000000001,"MEAN_MOTION_DOT":3.62e-06,"MEAN_MOTION_DDOT":0.0},{"OBJECT_NAME":"ONEWEB-0118","OBJECT_ID":"2020-100G","EPOCH":"2026-04-29T03:49:15.401856","MEAN_MOTION":13.12442946,"ECCENTRICITY":0.0001495,"INCLINATION":87.8999,"RA_OF_ASC_NODE":0.3952,"ARG_OF_PERICENTER":87.4209,"MEAN_ANOMALY":272.7091,"EPHEMERIS_TYPE":0,"CLASSIFICATION_TYPE":"U","NORAD_CAT_ID":47264,"ELEMENT_SET_NO":999,"REV_AT_EPOCH":25829,"BSTAR":-0.0010630000000000001,"MEAN_MOTION_DOT":-3.7e-06,"MEAN_MOTION_DDOT":0.0},{"OBJECT_NAME":"ONEWEB-0119","OBJECT_ID":"2020-100H","EPOCH":"2026-04-29T04:25:51.408192","MEAN_MOTION":13.12444002,"ECCENTRICITY":0.0001739,"INCLINATION":87.8984,"RA_OF_ASC_NODE":0.4118,"ARG_OF_PERICENTER":80.2347,"MEAN_ANOMALY":279.8978,"EPHEMERIS_TYPE":0,"CLASSIFICATION_TYPE":"U","NORAD_CAT_ID":47265,"ELEMENT_SET_NO":999,"REV_AT_EPOCH":25827,"BSTAR":0.00084919,"MEAN_MOTION_DOT":3.18e-06,"MEAN_MOTION_DDOT":0.0},{"OBJECT_NAME":"ONEWEB-0120","OBJECT_ID":"2020-100J","EPOCH":"2026-04-29T05:00:12.100896","MEAN_MOTION":13.12442662,"ECCENTRICITY":0.0001675,"INCLINATION":87.8985,"RA_OF_ASC_NODE":0.4081,"ARG_OF_PERICENTER":79.4515,"MEAN_ANOMALY":280.6803,"EPHEMERIS_TYPE":0,"CLASSIFICATION_TYPE":"U","NORAD_CAT_ID":47266,"ELEMENT_SET_NO":999,"REV_AT_EPOCH":25830,"BSTAR":0.00059304,"MEAN_MOTION_DOT":2.26e-06,"MEAN_MOTION_DDOT":0.0}]