ONEWEB-0087             
1 45451U 20020AD  26119.20134646  .00000564  00000+0  15566-2 0  9997
2 45451  87.8942  30.7744 0002142  80.3890 279.7480 13.11417231296166
ONEWEB-0082             
1 45452U 20020AE  26119.19809032  .00000614  00000+0  16962-2 0  9991
2 45452  87.8935  30.7954 0002063  79.0838 281.0522 13.11417923296252
ONEWEB-0050             
1 45453U 20020AF  26119.25908404  .00003006  00000+0  30839-3 0  9990
2 45453  88.9281 239.8526 0005505 127.4444 232.7287 14.90172662333092
ONEWEB-0034             
1 45454U 20020AG  26119.22059084  .00000129  00000+0  32931-3 0  9997
2 45454  87.8932  30.7945 0001849  78.3240 281.8095 13.10929624296170
ONEWEB-0060             
1 45455U 20020AH  26119.19045545  .00000346  00000+0  94112-3 0  9991
2 45455  87.8928  30.8082 0002859  79.4180 280.7270 13.11418474296121
ONEWEB-0086             
1 45456U 20020AJ  26119.24554991 -.00000449  00000+0 -13023-2 0  9995
2 45456  87.8936  30.7889 0002426  66.7200 293.4183 13.11418387296191
ONEWEB-0088             
1 45457U 20020AK  26119.22351174  .00000002  00000+0 -30315-4 0  9991
2 45457  87.8944  30.7619 0001744  92.6839 267.4489 13.11413817296126
ONEWEB-0102             
1 47258U 20100A   26119.18970476  .00000438  00000+0  11833-2 0  9992
2 47258  87.8985   0.4161 0001911  74.8211 285.3128 13.12443809258302
ONEWEB-0109             
1 47259U 20100B   26119.19817176  .00000444  00000+0  11987-2 0  9998
2 47259  87.8995   0.3933 0001700  77.3759 282.7560 13.12443513258135
ONEWEB-0110             
1 47260U 20100C   26119.22528084 -.00000288  00000+0 -83483-3 0  9990
2 47260  87.8995   0.3721 0001991  76.6345 283.5005 13.12442752258303
ONEWEB-0111             
1 47261U 20100D   26119.17953386  .00000183  00000+0  47346-3 0  9992
2 47261  87.8992   0.3999 0001888  82.2018 277.9325 13.12444919258133
ONEWEB-0114             
1 47262U 20100E   26119.21003017  .00000160  00000+0  40893-3 0  9990
2 47262  87.8997   0.3905 0001483  80.3455 279.7841 13.12442381258090
ONEWEB-0117             
1 47263U 20100F   26119.20156446  .00000362  00000+0  97213-3 0  9997
2 47263  87.8994   0.3848 0001782  79.9184 280.2145 13.12442496258102
ONEWEB-0118             
1 47264U 20100G   26119.15920604 -.00000370  00000+0 -10630-2 0  9995
2 47264  87.8999   0.3952 0001495  87.4209 272.7091 13.12442946258293
ONEWEB-0119             
1 47265U 20100H   26119.18462278  .00000318  00000+0  84919-3 0  9999
2 47265  87.8984   0.4118 0001739  80.2347 279.8978 13.12444002258273
ONEWEB-0120             
1 47266U 20100J   26119.20847339  .00000226  00000+0  59304-3 0  9996
2 47266  87.8985   0.4081 0001675  79.4515 280.6803 13.12442662258301
